{
  "type": "FeatureCollection",
  "features": [
    {
      "type": "Feature",
      "properties": {
        "norad_id": 66599,
        "name": "STARLINK-35930",
        "group": "last-30-days",
        "lat": 30.294308441527587,
        "lon": 12.799478406970346,
        "alt_km": 353.98242810395277,
        "timestamp": "2025-12-06T03:35:00.474413+00:00",
        "meta_object_name": "STARLINK-35930",
        "meta_object_id": "2025-270M",
        "meta_epoch": "2025-12-05T06:00:02.000160",
        "meta_mean_motion": 15.7404661,
        "meta_eccentricity": 0.00015464,
        "meta_inclination": 42.9987,
        "meta_ra_of_asc_node": 237.061,
        "meta_arg_of_pericenter": 269.9549,
        "meta_mean_anomaly": 166.1515,
        "meta_ephemeris_type": 0,
        "meta_classification_type": "U",
        "meta_norad_cat_id": 66599,
        "meta_element_set_no": 999,
        "meta_rev_at_epoch": 319,
        "meta_bstar": -0.014681403,
        "meta_mean_motion_dot": -0.01880549,
        "meta_mean_motion_ddot": 0,
        "tle_line1": "1 66599U 25270M   25339.25002315 -.01880549  00000+0 -14681-1 0  9998",
        "tle_line2": "2 66599  42.9987 237.0610 0001546 269.9549 166.1515 15.74046610  3197"
      },
      "geometry": {
        "type": "Point",
        "coordinates": [
          12.799478406970346,
          30.294308441527587
        ]
      }
    },
    {
      "type": "Feature",
      "properties": {
        "norad_id": 66600,
        "name": "STARLINK-35980",
        "group": "last-30-days",
        "lat": 29.260477548946557,
        "lon": 14.661219461580062,
        "alt_km": 354.11355997759256,
        "timestamp": "2025-12-06T03:35:00.474423+00:00",
        "meta_object_name": "STARLINK-35980",
        "meta_object_id": "2025-270N",
        "meta_epoch": "2025-12-05T06:00:02.000160",
        "meta_mean_motion": 15.74054996,
        "meta_eccentricity": 0.00012681,
        "meta_inclination": 42.9987,
        "meta_ra_of_asc_node": 237.0563,
        "meta_arg_of_pericenter": 277.1699,
        "meta_mean_anomaly": 160.8453,
        "meta_ephemeris_type": 0,
        "meta_classification_type": "U",
        "meta_norad_cat_id": 66600,
        "meta_element_set_no": 999,
        "meta_rev_at_epoch": 309,
        "meta_bstar": -0.014730516,
        "meta_mean_motion_dot": -0.01886351,
        "meta_mean_motion_ddot": 0,
        "tle_line1": "1 66600U 25270N   25339.25002315 -.01886351  00000+0 -14731-1 0  9994",
        "tle_line2": "2 66600  42.9987 237.0563 0001268 277.1699 160.8453 15.74054996  3092"
      },
      "geometry": {
        "type": "Point",
        "coordinates": [
          14.661219461580062,
          29.260477548946557
        ]
      }
    },
    {
      "type": "Feature",
      "properties": {
        "norad_id": 66601,
        "name": "STARLINK-35978",
        "group": "last-30-days",
        "lat": 28.20995313339809,
        "lon": 16.47064834845055,
        "alt_km": 354.35985828048615,
        "timestamp": "2025-12-06T03:35:00.474436+00:00",
        "meta_object_name": "STARLINK-35978",
        "meta_object_id": "2025-270P",
        "meta_epoch": "2025-12-05T06:00:02.000160",
        "meta_mean_motion": 15.7406469,
        "meta_eccentricity": 0.00015565,
        "meta_inclination": 42.9989,
        "meta_ra_of_asc_node": 237.0515,
        "meta_arg_of_pericenter": 272.5118,
        "meta_mean_anomaly": 167.4122,
        "meta_ephemeris_type": 0,
        "meta_classification_type": "U",
        "meta_norad_cat_id": 66601,
        "meta_element_set_no": 999,
        "meta_rev_at_epoch": 303,
        "meta_bstar": -0.014803941,
        "meta_mean_motion_dot": -0.0189544,
        "meta_mean_motion_ddot": 0,
        "tle_line1": "1 66601U 25270P   25339.25002315 -.01895440  00000+0 -14804-1 0  9995",
        "tle_line2": "2 66601  42.9989 237.0515 0001556 272.5118 167.4122 15.74064690  3039"
      },
      "geometry": {
        "type": "Point",
        "coordinates": [
          16.47064834845055,
          28.20995313339809
        ]
      }
    },
    {
      "type": "Feature",
      "properties": {
        "norad_id": 66602,
        "name": "STARLINK-36050",
        "group": "last-30-days",
        "lat": 27.132091652809514,
        "lon": 18.249896325366947,
        "alt_km": 354.7523588754675,
        "timestamp": "2025-12-06T03:35:00.474446+00:00",
        "meta_object_name": "STARLINK-36050",
        "meta_object_id": "2025-270Q",
        "meta_epoch": "2025-12-05T06:00:02.000160",
        "meta_mean_motion": 15.74055648,
        "meta_eccentricity": 0.00017702,
        "meta_inclination": 42.9987,
        "meta_ra_of_asc_node": 237.0465,
        "meta_arg_of_pericenter": 277.608,
        "meta_mean_anomaly": 164.245,
        "meta_ephemeris_type": 0,
        "meta_classification_type": "U",
        "meta_norad_cat_id": 66602,
        "meta_element_set_no": 999,
        "meta_rev_at_epoch": 309,
        "meta_bstar": -0.014781575,
        "meta_mean_motion_dot": -0.01892509,
        "meta_mean_motion_ddot": 0,
        "tle_line1": "1 66602U 25270Q   25339.25002315 -.01892509  00000+0 -14782-1 0  9994",
        "tle_line2": "2 66602  42.9987 237.0465 0001770 277.6080 164.2450 15.74055648  3092"
      },
      "geometry": {
        "type": "Point",
        "coordinates": [
          18.249896325366947,
          27.132091652809514
        ]
      }
    },
    {
      "type": "Feature",
      "properties": {
        "norad_id": 66603,
        "name": "STARLINK-36048",
        "group": "last-30-days",
        "lat": 26.01831207281322,
        "lon": 20.016019458067365,
        "alt_km": 354.8072001201772,
        "timestamp": "2025-12-06T03:35:00.474458+00:00",
        "meta_object_name": "STARLINK-36048",
        "meta_object_id": "2025-270R",
        "meta_epoch": "2025-12-05T06:00:02.000160",
        "meta_mean_motion": 15.74053246,
        "meta_eccentricity": 0.00015444,
        "meta_inclination": 42.9989,
        "meta_ra_of_asc_node": 237.0408,
        "meta_arg_of_pericenter": 281.3997,
        "meta_mean_anomaly": 162.3677,
        "meta_ephemeris_type": 0,
        "meta_classification_type": "U",
        "meta_norad_cat_id": 66603,
        "meta_element_set_no": 999,
        "meta_rev_at_epoch": 309,
        "meta_bstar": -0.014718439,
        "meta_mean_motion_dot": -0.0188513,
        "meta_mean_motion_ddot": 0,
        "tle_line1": "1 66603U 25270R   25339.25002315 -.01885130  00000+0 -14718-1 0  9996",
        "tle_line2": "2 66603  42.9989 237.0408 0001544 281.3997 162.3677 15.74053246  3092"
      },
      "geometry": {
        "type": "Point",
        "coordinates": [
          20.016019458067365,
          26.01831207281322
        ]
      }
    },
    {
      "type": "Feature",
      "properties": {
        "norad_id": 66604,
        "name": "STARLINK-35977",
        "group": "last-30-days",
        "lat": 24.90366066650321,
        "lon": 21.71866604489843,
        "alt_km": 354.8266709122199,
        "timestamp": "2025-12-06T03:35:00.474469+00:00",
        "meta_object_name": "STARLINK-35977",
        "meta_object_id": "2025-270S",
        "meta_epoch": "2025-12-05T06:00:02.000160",
        "meta_mean_motion": 15.74056683,
        "meta_eccentricity": 0.00014601,
        "meta_inclination": 42.9988,
        "meta_ra_of_asc_node": 237.0361,
        "meta_arg_of_pericenter": 275.7813,
        "meta_mean_anomaly": 169.9051,
        "meta_ephemeris_type": 0,
        "meta_classification_type": "U",
        "meta_norad_cat_id": 66604,
        "meta_element_set_no": 999,
        "meta_rev_at_epoch": 319,
        "meta_bstar": -0.014784676,
        "meta_mean_motion_dot": -0.01892644,
        "meta_mean_motion_ddot": 0,
        "tle_line1": "1 66604U 25270S   25339.25002315 -.01892644  00000+0 -14785-1 0  9999",
        "tle_line2": "2 66604  42.9988 237.0361 0001460 275.7813 169.9051 15.74056683  3199"
      },
      "geometry": {
        "type": "Point",
        "coordinates": [
          21.71866604489843,
          24.90366066650321
        ]
      }
    },
    {
      "type": "Feature",
      "properties": {
        "norad_id": 66605,
        "name": "STARLINK-36052",
        "group": "last-30-days",
        "lat": 23.757708562850304,
        "lon": 23.409344015981674,
        "alt_km": 355.1606905175404,
        "timestamp": "2025-12-06T03:35:00.474479+00:00",
        "meta_object_name": "STARLINK-36052",
        "meta_object_id": "2025-270T",
        "meta_epoch": "2025-12-05T06:00:02.000160",
        "meta_mean_motion": 15.74056486,
        "meta_eccentricity": 0.00015227,
        "meta_inclination": 42.9989,
        "meta_ra_of_asc_node": 237.0323,
        "meta_arg_of_pericenter": 282.5743,
        "meta_mean_anomaly": 165.0283,
        "meta_ephemeris_type": 0,
        "meta_classification_type": "U",
        "meta_norad_cat_id": 66605,
        "meta_element_set_no": 999,
        "meta_rev_at_epoch": 319,
        "meta_bstar": -0.014776557,
        "meta_mean_motion_dot": -0.01891786,
        "meta_mean_motion_ddot": 0,
        "tle_line1": "1 66605U 25270T   25339.25002315 -.01891786  00000+0 -14777-1 0  9997",
        "tle_line2": "2 66605  42.9989 237.0323 0001522 282.5743 165.0283 15.74056486  3191"
      },
      "geometry": {
        "type": "Point",
        "coordinates": [
          23.409344015981674,
          23.757708562850304
        ]
      }
    }
  ]
}